{
"type": "FeatureCollection",
"name": "passes",
"crs": { "type": "name", "properties": { "name": "urn:ogc:def:crs:OGC:1.3:CRS84" } },
"features": [
{ "type": "Feature", "properties": { "edge_id": 70375, "pairs_served": 114, "pass_elev_m": 472.55007934570312, "neighborhoods_separated": "Affoltern; Albisrieden; Alt-Wiedikon; Altstetten; City; Enge; Escher Wyss; Gewerbeschule; Hard; Hirzenbach; Hochschulen; Langstrasse; Lindenhof; Mühlebach; Oerlikon; Rathaus; Saatlen; Schwamendingen-Mitte; Seebach; Seefeld; Sihlfeld; Weinegg; Werd; Wipkingen; Wollishofen", "name": "Bucheggstrasse", "cls": "primary", "length_m": 86.218776369679176, "max_abs_grade": 0.0061099731454256432, "elev_min": 472.257080078125, "elev_max": 472.55007934570312, "neighborhood": "Unterstrass" }, "geometry": { "type": "LineString", "coordinates": [ [ 8.536861803983971, 47.398196150439823 ], [ 8.537020808380511, 47.398217810172362 ], [ 8.537428908380887, 47.398273410172244 ], [ 8.537979408381396, 47.398355710172083 ] ] } },
{ "type": "Feature", "properties": { "edge_id": 77209, "pairs_served": 33, "pass_elev_m": 623.39141845703125, "neighborhoods_separated": "Affoltern; Albisrieden; Alt-Wiedikon; Altstetten; City; Enge; Escher Wyss; Fluntern; Friesenberg; Gewerbeschule; Hard; Hirslanden; Hirzenbach; Hochschulen; Hottingen; Höngg; Langstrasse; Leimbach; Lindenhof; Mühlebach; Oberstrass; Oerlikon; Rathaus; Saatlen; Schwamendingen-Mitte; Seebach; Seefeld; Sihlfeld; Unterstrass; Weinegg; Werd; Wipkingen; Witikon; Wollishofen", "name": "Im Glockenacker", "cls": "residential", "length_m": 40.317909519927092, "max_abs_grade": 0.028121225952270811, "elev_min": 622.4007568359375, "elev_max": 623.39141845703125, "neighborhood": "Witikon" }, "geometry": { "type": "LineString", "coordinates": [ [ 8.596974553173419, 47.359176001529796 ], [ 8.597202908450937, 47.359248910142369 ], [ 8.597452508451152, 47.359325110142301 ], [ 8.597459567350043, 47.359327260535387 ] ] } },
{ "type": "Feature", "properties": { "edge_id": 73904, "pairs_served": 32, "pass_elev_m": 613.87188720703125, "neighborhoods_separated": "Affoltern; Albisrieden; Alt-Wiedikon; Altstetten; City; Enge; Escher Wyss; Fluntern; Friesenberg; Gewerbeschule; Hard; Hirslanden; Hirzenbach; Hochschulen; Hottingen; Höngg; Langstrasse; Leimbach; Lindenhof; Mühlebach; Oberstrass; Oerlikon; Rathaus; Saatlen; Schwamendingen-Mitte; Seebach; Seefeld; Sihlfeld; Unterstrass; Weinegg; Werd; Wipkingen; Wollishofen", "name": "Susenbergstrasse", "cls": "residential", "length_m": 68.497196121680318, "max_abs_grade": 0.039220945282165638, "elev_min": 612.5875244140625, "elev_max": 613.87188720703125, "neighborhood": "Fluntern" }, "geometry": { "type": "LineString", "coordinates": [ [ 8.564078171565768, 47.381948121067396 ], [ 8.564268608412025, 47.381842210159242 ], [ 8.564642808412446, 47.381640110159054 ], [ 8.564790408412607, 47.381566810159008 ] ] } },
{ "type": "Feature", "properties": { "edge_id": 60146, "pairs_served": 31, "pass_elev_m": 582.3424072265625, "neighborhoods_separated": "Affoltern; Albisrieden; Alt-Wiedikon; Altstetten; City; Enge; Escher Wyss; Friesenberg; Gewerbeschule; Hard; Hirslanden; Hirzenbach; Hochschulen; Hottingen; Höngg; Langstrasse; Leimbach; Lindenhof; Mühlebach; Oberstrass; Oerlikon; Rathaus; Saatlen; Schwamendingen-Mitte; Seebach; Seefeld; Sihlfeld; Unterstrass; Weinegg; Werd; Wipkingen; Wollishofen", "name": "Kurhausstrasse", "cls": "residential", "length_m": 177.05416253037237, "max_abs_grade": 0.1063672515200474, "elev_min": 564.7957763671875, "elev_max": 582.3424072265625, "neighborhood": "Hottingen" }, "geometry": { "type": "LineString", "coordinates": [ [ 8.571131459865649, 47.372472374177732 ], [ 8.571174508421626, 47.372465710154188 ], [ 8.57163060842209, 47.372397010154032 ], [ 8.572154208422614, 47.372332010153869 ], [ 8.572394508422855, 47.372315010153777 ], [ 8.572641008423092, 47.372319210153734 ], [ 8.572972208423405, 47.372348110153645 ], [ 8.573446095100927, 47.372393144310806 ] ] } },
{ "type": "Feature", "properties": { "edge_id": 67927, "pairs_served": 30, "pass_elev_m": 545.720458984375, "neighborhoods_separated": "Affoltern; Albisrieden; Alt-Wiedikon; Altstetten; City; Enge; Escher Wyss; Friesenberg; Gewerbeschule; Hard; Hirslanden; Hirzenbach; Hochschulen; Höngg; Langstrasse; Leimbach; Lindenhof; Mühlebach; Oberstrass; Oerlikon; Rathaus; Saatlen; Schwamendingen-Mitte; Seebach; Seefeld; Sihlfeld; Unterstrass; Weinegg; Werd; Wipkingen; Wollishofen", "name": null, "cls": "footway", "length_m": 3.4156697350783762, "max_abs_grade": 0.065865732649270148, "elev_min": 545.581298828125, "elev_max": 545.720458984375, "neighborhood": "Oberstrass" }, "geometry": { "type": "LineString", "coordinates": [ [ 8.551421808236038, 47.389798310174299 ], [ 8.551392608397064, 47.389799910165486 ], [ 8.551376708397045, 47.389800710165453 ] ] } },
{ "type": "Feature", "properties": { "edge_id": 58475, "pairs_served": 29, "pass_elev_m": 514.3514404296875, "neighborhoods_separated": "Affoltern; Albisrieden; Alt-Wiedikon; Altstetten; City; Enge; Escher Wyss; Friesenberg; Gewerbeschule; Hard; Hirslanden; Hirzenbach; Hochschulen; Höngg; Langstrasse; Leimbach; Lindenhof; Mühlebach; Oerlikon; Rathaus; Saatlen; Schwamendingen-Mitte; Seebach; Seefeld; Sihlfeld; Unterstrass; Weinegg; Werd; Wipkingen; Wollishofen", "name": "Waldschulweg", "cls": "residential", "length_m": 29.171495329315473, "max_abs_grade": 0.031308992704715967, "elev_min": 513.74151611328125, "elev_max": 514.3514404296875, "neighborhood": "Hirslanden" }, "geometry": { "type": "LineString", "coordinates": [ [ 8.573056574620937, 47.363605620816919 ], [ 8.5733053084265, 47.363414010150635 ], [ 8.573312319760559, 47.363409037720842 ] ] } },
{ "type": "Feature", "properties": { "edge_id": 3240, "pairs_served": 28, "pass_elev_m": 513.56689453125, "neighborhoods_separated": "Affoltern; Albisrieden; Alt-Wiedikon; Altstetten; City; Enge; Escher Wyss; Friesenberg; Gewerbeschule; Hard; Hirzenbach; Hochschulen; Höngg; Langstrasse; Leimbach; Lindenhof; Mühlebach; Oerlikon; Rathaus; Saatlen; Schwamendingen-Mitte; Seebach; Seefeld; Sihlfeld; Unterstrass; Weinegg; Werd; Wipkingen; Wollishofen", "name": "Bachtobelstrasse", "cls": "residential", "length_m": 25.199253896166816, "max_abs_grade": 0.10909630101939445, "elev_min": 511.016845703125, "elev_max": 513.56689453125, "neighborhood": "Friesenberg" }, "geometry": { "type": "LineString", "coordinates": [ [ 8.504341576687565, 47.355656172298758 ], [ 8.504133108361675, 47.35560551016809 ], [ 8.504029447768477, 47.355576450124367 ] ] } },
{ "type": "Feature", "properties": { "edge_id": 79903, "pairs_served": 27, "pass_elev_m": 506.26837158203125, "neighborhoods_separated": "Affoltern; Albisrieden; Alt-Wiedikon; Altstetten; City; Enge; Escher Wyss; Gewerbeschule; Hard; Hirzenbach; Hochschulen; Höngg; Langstrasse; Leimbach; Lindenhof; Mühlebach; Oerlikon; Rathaus; Saatlen; Schwamendingen-Mitte; Seebach; Seefeld; Sihlfeld; Unterstrass; Weinegg; Werd; Wipkingen; Wollishofen", "name": "Benedikt-Fontana-Weg", "cls": "residential", "length_m": 27.896838434161157, "max_abs_grade": 0.068990668521448612, "elev_min": 504.62875366210938, "elev_max": 506.26837158203125, "neighborhood": "Höngg" }, "geometry": { "type": "LineString", "coordinates": [ [ 8.495153180434228, 47.40691738911805 ], [ 8.495244908337201, 47.406949810187193 ], [ 8.495407008337354, 47.406982210187152 ], [ 8.495497108337437, 47.406992110187126 ], [ 8.495502962808558, 47.406992737236543 ] ] } },
{ "type": "Feature", "properties": { "edge_id": 3720, "pairs_served": 26, "pass_elev_m": 489.42236328125, "neighborhoods_separated": "Affoltern; Albisrieden; Alt-Wiedikon; Altstetten; City; Enge; Escher Wyss; Gewerbeschule; Hard; Hirzenbach; Hochschulen; Langstrasse; Leimbach; Lindenhof; Mühlebach; Oerlikon; Rathaus; Saatlen; Schwamendingen-Mitte; Seebach; Seefeld; Sihlfeld; Unterstrass; Weinegg; Werd; Wipkingen; Wollishofen", "name": "Stotzstrasse", "cls": "residential", "length_m": 6.5377077871917244, "max_abs_grade": 0.14303478477585937, "elev_min": 488.50546264648438, "elev_max": 489.42236328125, "neighborhood": "Leimbach" }, "geometry": { "type": "LineString", "coordinates": [ [ 8.512360672438055, 47.331721143012601 ], [ 8.51228590837693, 47.331750710157969 ] ] } },
{ "type": "Feature", "properties": { "edge_id": 70254, "pairs_served": 25, "pass_elev_m": 476.358642578125, "neighborhoods_separated": "Affoltern; Albisrieden; Alt-Wiedikon; Altstetten; City; Enge; Escher Wyss; Gewerbeschule; Hard; Hirzenbach; Hochschulen; Langstrasse; Lindenhof; Mühlebach; Oerlikon; Rathaus; Saatlen; Schwamendingen-Mitte; Seebach; Seefeld; Sihlfeld; Unterstrass; Weinegg; Werd; Wipkingen; Wollishofen", "name": "Guggachstrasse", "cls": "residential", "length_m": 34.486229377919592, "max_abs_grade": 0.013355222952585977, "elev_min": 475.91171264648438, "elev_max": 476.358642578125, "neighborhood": "Unterstrass" }, "geometry": { "type": "LineString", "coordinates": [ [ 8.53836607354371, 47.396382580195088 ], [ 8.538000008381974, 47.396566910171551 ], [ 8.537999150719944, 47.396567339187968 ] ] } },
{ "type": "Feature", "properties": { "edge_id": 18530, "pairs_served": 18, "pass_elev_m": 468.44540405273438, "neighborhoods_separated": "Albisrieden; Alt-Wiedikon; Altstetten; City; Enge; Escher Wyss; Gewerbeschule; Hard; Hochschulen; Langstrasse; Lindenhof; Mühlebach; Rathaus; Seefeld; Sihlfeld; Weinegg; Werd; Wipkingen; Wollishofen", "name": "August-Forel-Strasse", "cls": "residential", "length_m": 108.94725460909019, "max_abs_grade": 0.014266170380595543, "elev_min": 467.07180786132812, "elev_max": 468.44540405273438, "neighborhood": "Weinegg" }, "geometry": { "type": "LineString", "coordinates": [ [ 8.572073300692692, 47.354095956021077 ], [ 8.572086608428158, 47.354253910148046 ], [ 8.57209660842808, 47.354553210148119 ], [ 8.572082708428004, 47.354742310148225 ], [ 8.572032008427898, 47.35492041014826 ], [ 8.572003208427848, 47.354986610148281 ], [ 8.5719683482207, 47.355065683301007 ] ] } },
{ "type": "Feature", "properties": { "edge_id": 10970, "pairs_served": 17, "pass_elev_m": 460.163330078125, "neighborhoods_separated": "Albisrieden; Alt-Wiedikon; Altstetten; City; Enge; Escher Wyss; Gewerbeschule; Hard; Hochschulen; Langstrasse; Lindenhof; Mühlebach; Rathaus; Seefeld; Sihlfeld; Werd; Wipkingen; Wollishofen", "name": "Balberstrasse", "cls": "living_street", "length_m": 68.597174822603861, "max_abs_grade": 0.019899525303675048, "elev_min": 459.69097900390625, "elev_max": 460.163330078125, "neighborhood": "Wollishofen" }, "geometry": { "type": "LineString", "coordinates": [ [ 8.526848403613752, 47.340994223454729 ], [ 8.526849808388294, 47.340992710156819 ], [ 8.527277608388845, 47.340547610156548 ], [ 8.527335908836866, 47.3404740819796 ] ] } },
{ "type": "Feature", "properties": { "edge_id": 39191, "pairs_served": 16, "pass_elev_m": 443.38070678710938, "neighborhoods_separated": "Albisrieden; Alt-Wiedikon; Altstetten; City; Enge; Escher Wyss; Gewerbeschule; Hard; Hochschulen; Langstrasse; Lindenhof; Mühlebach; Rathaus; Seefeld; Sihlfeld; Werd; Wipkingen", "name": "Lehenstrasse", "cls": "residential", "length_m": 17.29943790953628, "max_abs_grade": 0.11808039966976439, "elev_min": 441.79776000976562, "elev_max": 443.38070678710938, "neighborhood": "Wipkingen" }, "geometry": { "type": "LineString", "coordinates": [ [ 8.526773808371201, 47.396150310174626 ], [ 8.526799408371231, 47.39612181017457 ], [ 8.526820808371264, 47.396085710174596 ], [ 8.526827208371282, 47.396056510174596 ], [ 8.526813808371287, 47.396003510174594 ] ] } },
{ "type": "Feature", "properties": { "edge_id": 27134, "pairs_served": 15, "pass_elev_m": 440.406982421875, "neighborhoods_separated": "Albisrieden; Alt-Wiedikon; Altstetten; City; Enge; Escher Wyss; Gewerbeschule; Hard; Hochschulen; Langstrasse; Lindenhof; Mühlebach; Rathaus; Seefeld; Sihlfeld; Werd", "name": "Triemlistrasse", "cls": "tertiary", "length_m": 80.983612969594986, "max_abs_grade": 0.016733051139266455, "elev_min": 439.17208862304688, "elev_max": 440.406982421875, "neighborhood": "Albisrieden" }, "geometry": { "type": "LineString", "coordinates": [ [ 8.486730979393625, 47.372437661595242 ], [ 8.486754908339561, 47.372426210178538 ], [ 8.486984908339819, 47.372316110178481 ], [ 8.487179908340035, 47.37222601017838 ], [ 8.487241308340108, 47.372197810178356 ], [ 8.487405708340292, 47.372120310178275 ], [ 8.487469608340362, 47.37209261017825 ], [ 8.48761593185961, 47.372026501178276 ] ] } },
{ "type": "Feature", "properties": { "edge_id": 51337, "pairs_served": 14, "pass_elev_m": 425.85452270507812, "neighborhoods_separated": "Alt-Wiedikon; Altstetten; City; Enge; Escher Wyss; Gewerbeschule; Hard; Hochschulen; Langstrasse; Lindenhof; Mühlebach; Rathaus; Seefeld; Sihlfeld; Werd", "name": "Binzstrasse", "cls": "unclassified", "length_m": 60.15598659650243, "max_abs_grade": 0.017476738214124668, "elev_min": 424.968994140625, "elev_max": 425.85452270507812, "neighborhood": "Alt-Wiedikon" }, "geometry": { "type": "LineString", "coordinates": [ [ 8.51694950043221, 47.363065558209733 ], [ 8.51694930837186, 47.363065510166841 ], [ 8.516203808371195, 47.362878910167012 ], [ 8.516202266272535, 47.362878524642348 ] ] } },
{ "type": "Feature", "properties": { "edge_id": 63556, "pairs_served": 13, "pass_elev_m": 423.85275268554688, "neighborhoods_separated": "Altstetten; City; Enge; Escher Wyss; Gewerbeschule; Hard; Hochschulen; Langstrasse; Lindenhof; Mühlebach; Rathaus; Seefeld; Sihlfeld; Werd", "name": "Spiegelgasse", "cls": "pedestrian", "length_m": 25.477109337078996, "max_abs_grade": 0.11826304521277342, "elev_min": 421.86251831054688, "elev_max": 423.85275268554688, "neighborhood": "Rathaus" }, "geometry": { "type": "LineString", "coordinates": [ [ 8.544352248232503, 47.371695850367196 ], [ 8.544364708395854, 47.371700010161696 ], [ 8.544619897357578, 47.371834999994881 ] ] } },
{ "type": "Feature", "properties": { "edge_id": 62635, "pairs_served": 12, "pass_elev_m": 421.3228759765625, "neighborhoods_separated": "Altstetten; City; Enge; Escher Wyss; Gewerbeschule; Hard; Hochschulen; Langstrasse; Lindenhof; Mühlebach; Seefeld; Sihlfeld; Werd", "name": "Hirschengraben", "cls": "service", "length_m": 17.031641750070072, "max_abs_grade": 0.018513049744750116, "elev_min": 421.07781982421875, "elev_max": 421.3228759765625, "neighborhood": "Hochschulen" }, "geometry": { "type": "LineString", "coordinates": [ [ 8.547473650361191, 47.372653996133636 ], [ 8.547476008398585, 47.372646210161115 ], [ 8.54751950839867, 47.37250401016108 ] ] } },
{ "type": "Feature", "properties": { "edge_id": 53362, "pairs_served": 11, "pass_elev_m": 419.67465209960938, "neighborhoods_separated": "Altstetten; City; Enge; Escher Wyss; Gewerbeschule; Hard; Langstrasse; Lindenhof; Mühlebach; Seefeld; Sihlfeld; Werd", "name": "Schulhausstrasse", "cls": "residential", "length_m": 10.822713349370169, "max_abs_grade": 0.11239890954151177, "elev_min": 418.54638671875, "elev_max": 419.67465209960938, "neighborhood": "Enge" }, "geometry": { "type": "LineString", "coordinates": [ [ 8.531040308386222, 47.360965810162099 ], [ 8.531178427837864, 47.360991657660584 ] ] } },
{ "type": "Feature", "properties": { "edge_id": 57143, "pairs_served": 10, "pass_elev_m": 416.65936279296875, "neighborhoods_separated": "Altstetten; City; Escher Wyss; Gewerbeschule; Hard; Langstrasse; Lindenhof; Mühlebach; Seefeld; Sihlfeld; Werd", "name": "Höschgasse", "cls": "secondary", "length_m": 6.1227278852066647, "max_abs_grade": 0.018880568983989536, "elev_min": 416.54446411132812, "elev_max": 416.65936279296875, "neighborhood": "Mühlebach" }, "geometry": { "type": "LineString", "coordinates": [ [ 8.556077208411399, 47.358222510153965 ], [ 8.556001813212367, 47.358202311440174 ] ] } },
{ "type": "Feature", "properties": { "edge_id": 63812, "pairs_served": 9, "pass_elev_m": 416.47052001953125, "neighborhoods_separated": "Altstetten; City; Escher Wyss; Gewerbeschule; Hard; Langstrasse; Lindenhof; Seefeld; Sihlfeld; Werd", "name": null, "cls": "footway", "length_m": 20.535086499168418, "max_abs_grade": 0.021719625126552296, "elev_min": 416.20758056640625, "elev_max": 416.47052001953125, "neighborhood": "Lindenhof" }, "geometry": { "type": "LineString", "coordinates": [ [ 8.540565696867963, 47.371559058879498 ], [ 8.540579008392218, 47.371560310162735 ], [ 8.54059870839224, 47.371575810162753 ], [ 8.5405837083922, 47.371633210162798 ], [ 8.540539008392134, 47.371713410162812 ], [ 8.540550767411426, 47.371705794274604 ] ] } },
{ "type": "Feature", "properties": { "edge_id": 47294, "pairs_served": 8, "pass_elev_m": 415.50503540039062, "neighborhoods_separated": "Altstetten; City; Escher Wyss; Gewerbeschule; Hard; Langstrasse; Seefeld; Sihlfeld; Werd", "name": "Saumstrasse", "cls": "residential", "length_m": 7.5956858896521506, "max_abs_grade": 0.0080997868833975716, "elev_min": 415.46356201171875, "elev_max": 415.50503540039062, "neighborhood": "Sihlfeld" }, "geometry": { "type": "LineString", "coordinates": [ [ 8.510262740949205, 47.372846386008369 ], [ 8.510257408362337, 47.372848110171944 ], [ 8.510171422394786, 47.37287500405143 ] ] } },
{ "type": "Feature", "properties": { "edge_id": 44316, "pairs_served": 7, "pass_elev_m": 411.4871826171875, "neighborhoods_separated": "Altstetten; City; Escher Wyss; Gewerbeschule; Hard; Langstrasse; Seefeld; Werd", "name": "Werdstrasse", "cls": "tertiary", "length_m": 13.224835512087136, "max_abs_grade": 0.0084181104465955569, "elev_min": 411.37631225585938, "elev_max": 411.4871826171875, "neighborhood": "Werd" }, "geometry": { "type": "LineString", "coordinates": [ [ 8.526718708378546, 47.372211210166945 ], [ 8.52682530837863, 47.37228711016698 ], [ 8.526842287043277, 47.372295121547566 ] ] } },
{ "type": "Feature", "properties": { "edge_id": 17032, "pairs_served": 6, "pass_elev_m": 410.91363525390625, "neighborhoods_separated": "Altstetten; City; Escher Wyss; Gewerbeschule; Hard; Langstrasse; Seefeld", "name": "Baurstrasse", "cls": "residential", "length_m": 2.6541213441158051, "max_abs_grade": 0.036035310925287667, "elev_min": 410.821044921875, "elev_max": 410.91363525390625, "neighborhood": "Seefeld" }, "geometry": { "type": "LineString", "coordinates": [ [ 8.553455067273338, 47.355478551841621 ], [ 8.553476408409718, 47.355485710153843 ], [ 8.55348655432285, 47.355489137084625 ] ] } },
{ "type": "Feature", "properties": { "edge_id": 64416, "pairs_served": 5, "pass_elev_m": 410.27020263671875, "neighborhoods_separated": "Altstetten; City; Escher Wyss; Gewerbeschule; Hard; Langstrasse", "name": "Steinmühleplatz", "cls": "residential", "length_m": 9.6487830452418297, "max_abs_grade": 0.028421300873082849, "elev_min": 410.02218627929688, "elev_max": 410.27020263671875, "neighborhood": "City" }, "geometry": { "type": "LineString", "coordinates": [ [ 8.536443604734858, 47.374053055310931 ], [ 8.536442108387433, 47.374053810164796 ], [ 8.536345708387326, 47.37410881016482 ] ] } },
{ "type": "Feature", "properties": { "edge_id": 85054, "pairs_served": 5, "pass_elev_m": 454.92535400390625, "neighborhoods_separated": "Affoltern; Hirzenbach; Oerlikon; Saatlen; Schwamendingen-Mitte; Seebach", "name": "Fronwaldstrasse", "cls": "residential", "length_m": 8.4981403392284722, "max_abs_grade": 0.013006924292886524, "elev_min": 454.81484985351562, "elev_max": 454.92535400390625, "neighborhood": "Affoltern" }, "geometry": { "type": "LineString", "coordinates": [ [ 8.512386720659554, 47.420981471648716 ], [ 8.512483908349626, 47.420943610186626 ], [ 8.512484392484097, 47.420943421880949 ] ] } },
{ "type": "Feature", "properties": { "edge_id": 92452, "pairs_served": 4, "pass_elev_m": 446.06881713867188, "neighborhoods_separated": "Hirzenbach; Oerlikon; Saatlen; Schwamendingen-Mitte; Seebach", "name": "Hertensteinstrasse", "cls": "residential", "length_m": 18.611928315921883, "max_abs_grade": 0.061835546010806298, "elev_min": 445.04534912109375, "elev_max": 446.06881713867188, "neighborhood": "Seebach" }, "geometry": { "type": "LineString", "coordinates": [ [ 8.5432062083788, 47.423006610178398 ], [ 8.543216508378775, 47.423107110178442 ], [ 8.543197108378736, 47.423168910178489 ], [ 8.543196038742629, 47.42317230152473 ] ] } },
{ "type": "Feature", "properties": { "edge_id": 43548, "pairs_served": 4, "pass_elev_m": 409.44741821289062, "neighborhoods_separated": "Altstetten; Escher Wyss; Gewerbeschule; Hard; Langstrasse", "name": "Hohlstrasse", "cls": "living_street", "length_m": 39.408145839526284, "max_abs_grade": 0.003140957434451099, "elev_min": 409.3546142578125, "elev_max": 409.44741821289062, "neighborhood": "Langstrasse" }, "geometry": { "type": "LineString", "coordinates": [ [ 8.527202844310812, 47.377059200120065 ], [ 8.527200508377524, 47.377059910168377 ], [ 8.526746608377026, 47.377231210168603 ] ] } },
{ "type": "Feature", "properties": { "edge_id": 35687, "pairs_served": 3, "pass_elev_m": 407.33914184570312, "neighborhoods_separated": "Altstetten; Escher Wyss; Gewerbeschule; Hard", "name": "Gugolzstrasse", "cls": "residential", "length_m": 23.932736797881809, "max_abs_grade": 0.021524355613707233, "elev_min": 406.91000366210938, "elev_max": 407.33914184570312, "neighborhood": "Hard" }, "geometry": { "type": "LineString", "coordinates": [ [ 8.51257040836175, 47.38206511017426 ], [ 8.512728908361849, 47.382232710174243 ], [ 8.51274175614455, 47.382246193932872 ] ] } },
{ "type": "Feature", "properties": { "edge_id": 90293, "pairs_served": 3, "pass_elev_m": 444.3260498046875, "neighborhoods_separated": "Hirzenbach; Oerlikon; Saatlen; Schwamendingen-Mitte", "name": "Schulsteig", "cls": "service", "length_m": 3.2031169494978506, "max_abs_grade": 0.030830870707412649, "elev_min": 444.255859375, "elev_max": 444.3260498046875, "neighborhood": "Oerlikon" }, "geometry": { "type": "LineString", "coordinates": [ [ 8.544945611208686, 47.408653620226822 ], [ 8.544945408384956, 47.408653410173365 ], [ 8.544923308384945, 47.408629110173365 ] ] } },
{ "type": "Feature", "properties": { "edge_id": 72594, "pairs_served": 2, "pass_elev_m": 440.0594482421875, "neighborhoods_separated": "Hirzenbach; Saatlen; Schwamendingen-Mitte", "name": "Bocklerstrasse", "cls": "living_street", "length_m": 44.897283337688719, "max_abs_grade": 0.043348447326796047, "elev_min": 438.4248046875, "elev_max": 440.0594482421875, "neighborhood": "Schwamendingen-Mitte" }, "geometry": { "type": "LineString", "coordinates": [ [ 8.570322953937017, 47.403425583023648 ], [ 8.570329508411172, 47.40342521016435 ], [ 8.570514508411359, 47.403388810164302 ], [ 8.570578408411425, 47.403381410164236 ], [ 8.570634108411479, 47.403380410164253 ], [ 8.570682308411524, 47.403387310164199 ], [ 8.570733308411567, 47.403400310164223 ], [ 8.570780708411609, 47.403418410164214 ], [ 8.570876523759122, 47.403463920551644 ] ] } },
{ "type": "Feature", "properties": { "edge_id": 42882, "pairs_served": 2, "pass_elev_m": 405.04833984375, "neighborhoods_separated": "Altstetten; Escher Wyss; Gewerbeschule", "name": "Heinrichstrasse", "cls": "residential", "length_m": 20.146042641079958, "max_abs_grade": 0.0028630060143008287, "elev_min": 404.99200439453125, "elev_max": 405.04833984375, "neighborhood": "Gewerbeschule" }, "geometry": { "type": "LineString", "coordinates": [ [ 8.530416108378397, 47.384333710169834 ], [ 8.530245508378192, 47.384472110169945 ], [ 8.530244835709619, 47.384472640732717 ] ] } },
{ "type": "Feature", "properties": { "edge_id": 36561, "pairs_served": 1, "pass_elev_m": 402.66607666015625, "neighborhoods_separated": "Altstetten; Escher Wyss", "name": "Technoparkstrasse", "cls": "living_street", "length_m": 30.662312701705904, "max_abs_grade": 0.0019228801400358363, "elev_min": 402.64950561523438, "elev_max": 402.66607666015625, "neighborhood": "Escher Wyss" }, "geometry": { "type": "LineString", "coordinates": [ [ 8.516260408363053, 47.389450010175544 ], [ 8.516434708363144, 47.389698610175564 ], [ 8.516434991963322, 47.389699008221015 ] ] } },
{ "type": "Feature", "properties": { "edge_id": 75479, "pairs_served": 1, "pass_elev_m": 429.09368896484375, "neighborhoods_separated": "Hirzenbach; Saatlen", "name": "Altwiesenstrasse", "cls": "residential", "length_m": 10.480429074107166, "max_abs_grade": 0.0011094199554457602, "elev_min": 429.08319091796875, "elev_max": 429.09368896484375, "neighborhood": "Hirzenbach" }, "geometry": { "type": "LineString", "coordinates": [ [ 8.586847611029233, 47.401563034180249 ], [ 8.586847708427729, 47.401563010158938 ], [ 8.586978086548866, 47.401530815561522 ] ] } }
]
}
